METEOSAT-11 (MSG-4)     
1 40732U 15034A   26095.81810227  .00000066  00000+0  00000+0 0  9990
2 40732   3.0202  71.4878 0001739 285.4621 141.0015  1.00276334  6495
ELEKTRO-L 2             
1 41105U 15074A   26095.74209572 -.00000113  00000+0  00000+0 0  9990
2 41105   6.5132  71.4026 0002560 259.6171 115.6962  1.00272421 37788
INSAT-3DR               
1 41752U 16054A   26095.83094711 -.00000076  00000+0  00000+0 0  9992
2 41752   0.1310  86.7717 0012026 196.6335 283.8782  1.00273903 35096
HIMAWARI-9              
1 41836U 16064A   26095.77286251 -.00000273  00000+0  00000+0 0  9990
2 41836   0.0497 106.8045 0001278 294.0597 212.2062  1.00270897 34480
GOES 16                 
1 41866U 16071A   26095.65298300 -.00000089  00000+0  00000+0 0  9991
2 41866   0.1757  85.2897 0001814 247.8363 351.2025  1.00272283 34373
FENGYUN 4A              
1 41882U 16077A   26095.84082716 -.00000354  00000+0  00000+0 0  9993
2 41882   2.1396  81.0153 0007866 139.0328  40.4471  1.00278307 34204
CYGFM05                 
1 41884U 16078A   26095.83013104  .00029759  00000+0  45039-3 0  9994
2 41884  34.9589  18.5891 0007228 202.4062 157.6347 15.53627314517487
CYGFM04                 
1 41885U 16078B   26095.81394879  .00034287  00000+0  44650-3 0  9994
2 41885  34.9342 349.7083 0007200 242.5901 117.4091 15.57661237517693
CYGFM02                 
1 41886U 16078C   26095.80410492  .00038128  00000+0  45584-3 0  9999
2 41886  34.9425 346.0862 0008244 241.1995 118.7902 15.59885233517846
CYGFM01                 
1 41887U 16078D   26095.84805668  .00028173  00000+0  41766-3 0  9994
2 41887  34.9419  20.0771 0006750 196.4216 163.6290 15.54203059517435
CYGFM08                 
1 41888U 16078E   26095.85654296  .00030325  00000+0  41357-3 0  9993
2 41888  34.9452   1.3315 0008833 223.0214 136.9820 15.56431097517684
CYGFM07                 
1 41890U 16078G   26095.81980093  .00032671  00000+0  44433-3 0  9993
2 41890  34.9466 349.9725 0007655 241.2514 118.7441 15.56506209517702
CYGFM03                 
1 41891U 16078H   26095.79083270  .00031924  00000+0  43434-3 0  9992
2 41891  34.9422 352.1290 0006611 230.6792 129.3347 15.56508218517670
FENGYUN 3D              
1 43010U 17072A   26095.91028727  .00000152  00000+0  93744-4 0  9991
2 43010  99.0077  69.0501 0000463 246.9864 113.1262 14.19723655434735
NOAA 20 (JPSS-1)        
1 43013U 17073A   26095.82415245  .00000110  00000+0  72922-4 0  9999
2 43013  98.7725  35.9469 0002046 101.0324 259.1082 14.19543528434202
GOES 17                 
1 43226U 18022A   26095.58462028 -.00000181  00000+0  00000+0 0  9996
2 43226   0.7512  86.7858 0001188 260.2628 327.7985  1.00271532 29698
FENGYUN 2H              
1 43491U 18050A   26095.83198713 -.00000123  00000+0  00000+0 0  9992
2 43491   2.8443  79.9369 0001109 169.5398 323.1995  1.00270618 28714
