[{"OBJECT_NAME":"METEOSAT-11 (MSG-4)","OBJECT_ID":"2015-034A","EPOCH":"2026-04-05T19:38:04.036128","MEAN_MOTION":1.00276334,"ECCENTRICITY":0.0001739,"INCLINATION":3.0202,"RA_OF_ASC_NODE":71.4878,"ARG_OF_PERICENTER":285.4621,"MEAN_ANOMALY":141.0015,"EPHEMERIS_TYPE":0,"CLASSIFICATION_TYPE":"U","NORAD_CAT_ID":40732,"ELEMENT_SET_NO":999,"REV_AT_EPOCH":649,"BSTAR":0,"MEAN_MOTION_DOT":6.6e-7,"MEAN_MOTION_DDOT":0},{"OBJECT_NAME":"ELEKTRO-L 2","OBJECT_ID":"2015-074A","EPOCH":"2026-04-05T17:48:37.070208","MEAN_MOTION":1.00272421,"ECCENTRICITY":0.000256,"INCLINATION":6.5132,"RA_OF_ASC_NODE":71.4026,"ARG_OF_PERICENTER":259.6171,"MEAN_ANOMALY":115.6962,"EPHEMERIS_TYPE":0,"CLASSIFICATION_TYPE":"U","NORAD_CAT_ID":41105,"ELEMENT_SET_NO":999,"REV_AT_EPOCH":3778,"BSTAR":0,"MEAN_MOTION_DOT":-1.13e-6,"MEAN_MOTION_DDOT":0},{"OBJECT_NAME":"INSAT-3DR","OBJECT_ID":"2016-054A","EPOCH":"2026-04-05T19:56:33.830304","MEAN_MOTION":1.00273903,"ECCENTRICITY":0.0012026,"INCLINATION":0.131,"RA_OF_ASC_NODE":86.7717,"ARG_OF_PERICENTER":196.6335,"MEAN_ANOMALY":283.8782,"EPHEMERIS_TYPE":0,"CLASSIFICATION_TYPE":"U","NORAD_CAT_ID":41752,"ELEMENT_SET_NO":999,"REV_AT_EPOCH":3509,"BSTAR":0,"MEAN_MOTION_DOT":-7.6e-7,"MEAN_MOTION_DDOT":0},{"OBJECT_NAME":"HIMAWARI-9","OBJECT_ID":"2016-064A","EPOCH":"2026-04-05T18:32:55.320864","MEAN_MOTION":1.00270897,"ECCENTRICITY":0.0001278,"INCLINATION":0.0497,"RA_OF_ASC_NODE":106.8045,"ARG_OF_PERICENTER":294.0597,"MEAN_ANOMALY":212.2062,"EPHEMERIS_TYPE":0,"CLASSIFICATION_TYPE":"U","NORAD_CAT_ID":41836,"ELEMENT_SET_NO":999,"REV_AT_EPOCH":3448,"BSTAR":0,"MEAN_MOTION_DOT":-2.73e-6,"MEAN_MOTION_DDOT":0},{"OBJECT_NAME":"GOES 16","OBJECT_ID":"2016-071A","EPOCH":"2026-04-05T15:40:17.731200","MEAN_MOTION":1.00272283,"ECCENTRICITY":0.0001814,"INCLINATION":0.1757,"RA_OF_ASC_NODE":85.2897,"ARG_OF_PERICENTER":247.8363,"MEAN_ANOMALY":351.2025,"EPHEMERIS_TYPE":0,"CLASSIFICATION_TYPE":"U","NORAD_CAT_ID":41866,"ELEMENT_SET_NO":999,"REV_AT_EPOCH":3437,"BSTAR":0,"MEAN_MOTION_DOT":-8.9e-7,"MEAN_MOTION_DDOT":0},{"OBJECT_NAME":"FENGYUN 4A","OBJECT_ID":"2016-077A","EPOCH":"2026-04-05T20:10:47.466624","MEAN_MOTION":1.00278307,"ECCENTRICITY":0.0007866,"INCLINATION":2.1396,"RA_OF_ASC_NODE":81.0153,"ARG_OF_PERICENTER":139.0328,"MEAN_ANOMALY":40.4471,"EPHEMERIS_TYPE":0,"CLASSIFICATION_TYPE":"U","NORAD_CAT_ID":41882,"ELEMENT_SET_NO":999,"REV_AT_EPOCH":3420,"BSTAR":0,"MEAN_MOTION_DOT":-3.54e-6,"MEAN_MOTION_DDOT":0},{"OBJECT_NAME":"CYGFM05","OBJECT_ID":"2016-078A","EPOCH":"2026-04-05T19:55:23.321856","MEAN_MOTION":15.53627314,"ECCENTRICITY":0.0007228,"INCLINATION":34.9589,"RA_OF_ASC_NODE":18.5891,"ARG_OF_PERICENTER":202.4062,"MEAN_ANOMALY":157.6347,"EPHEMERIS_TYPE":0,"CLASSIFICATION_TYPE":"U","NORAD_CAT_ID":41884,"ELEMENT_SET_NO":999,"REV_AT_EPOCH":51748,"BSTAR":0.00045039,"MEAN_MOTION_DOT":0.00029759,"MEAN_MOTION_DDOT":0},{"OBJECT_NAME":"CYGFM04","OBJECT_ID":"2016-078B","EPOCH":"2026-04-05T19:32:05.175456","MEAN_MOTION":15.57661237,"ECCENTRICITY":0.00072,"INCLINATION":34.9342,"RA_OF_ASC_NODE":349.7083,"ARG_OF_PERICENTER":242.5901,"MEAN_ANOMALY":117.4091,"EPHEMERIS_TYPE":0,"CLASSIFICATION_TYPE":"U","NORAD_CAT_ID":41885,"ELEMENT_SET_NO":999,"REV_AT_EPOCH":51769,"BSTAR":0.0004465,"MEAN_MOTION_DOT":0.00034287,"MEAN_MOTION_DDOT":0},{"OBJECT_NAME":"CYGFM02","OBJECT_ID":"2016-078C","EPOCH":"2026-04-05T19:17:54.665088","MEAN_MOTION":15.59885233,"ECCENTRICITY":0.0008244,"INCLINATION":34.9425,"RA_OF_ASC_NODE":346.0862,"ARG_OF_PERICENTER":241.1995,"MEAN_ANOMALY":118.7902,"EPHEMERIS_TYPE":0,"CLASSIFICATION_TYPE":"U","NORAD_CAT_ID":41886,"ELEMENT_SET_NO":999,"REV_AT_EPOCH":51784,"BSTAR":0.00045584,"MEAN_MOTION_DOT":0.00038128,"MEAN_MOTION_DDOT":0},{"OBJECT_NAME":"CYGFM01","OBJECT_ID":"2016-078D","EPOCH":"2026-04-05T20:21:12.097152","MEAN_MOTION":15.54203059,"ECCENTRICITY":0.000675,"INCLINATION":34.9419,"RA_OF_ASC_NODE":20.0771,"ARG_OF_PERICENTER":196.4216,"MEAN_ANOMALY":163.629,"EPHEMERIS_TYPE":0,"CLASSIFICATION_TYPE":"U","NORAD_CAT_ID":41887,"ELEMENT_SET_NO":999,"REV_AT_EPOCH":51743,"BSTAR":0.00041766,"MEAN_MOTION_DOT":0.00028173,"MEAN_MOTION_DDOT":0},{"OBJECT_NAME":"CYGFM08","OBJECT_ID":"2016-078E","EPOCH":"2026-04-05T20:33:25.311744","MEAN_MOTION":15.56431097,"ECCENTRICITY":0.0008833,"INCLINATION":34.9452,"RA_OF_ASC_NODE":1.3315,"ARG_OF_PERICENTER":223.0214,"MEAN_ANOMALY":136.982,"EPHEMERIS_TYPE":0,"CLASSIFICATION_TYPE":"U","NORAD_CAT_ID":41888,"ELEMENT_SET_NO":999,"REV_AT_EPOCH":51768,"BSTAR":0.00041357,"MEAN_MOTION_DOT":0.00030325,"MEAN_MOTION_DDOT":0},{"OBJECT_NAME":"CYGFM07","OBJECT_ID":"2016-078G","EPOCH":"2026-04-05T19:40:30.800352","MEAN_MOTION":15.56506209,"ECCENTRICITY":0.0007655,"INCLINATION":34.9466,"RA_OF_ASC_NODE":349.9725,"ARG_OF_PERICENTER":241.2514,"MEAN_ANOMALY":118.7441,"EPHEMERIS_TYPE":0,"CLASSIFICATION_TYPE":"U","NORAD_CAT_ID":41890,"ELEMENT_SET_NO":999,"REV_AT_EPOCH":51770,"BSTAR":0.00044433,"MEAN_MOTION_DOT":0.00032671,"MEAN_MOTION_DDOT":0},{"OBJECT_NAME":"CYGFM03","OBJECT_ID":"2016-078H","EPOCH":"2026-04-05T18:58:47.945280","MEAN_MOTION":15.56508218,"ECCENTRICITY":0.0006611,"INCLINATION":34.9422,"RA_OF_ASC_NODE":352.129,"ARG_OF_PERICENTER":230.6792,"MEAN_ANOMALY":129.3347,"EPHEMERIS_TYPE":0,"CLASSIFICATION_TYPE":"U","NORAD_CAT_ID":41891,"ELEMENT_SET_NO":999,"REV_AT_EPOCH":51767,"BSTAR":0.00043434,"MEAN_MOTION_DOT":0.00031924,"MEAN_MOTION_DDOT":0},{"OBJECT_NAME":"FENGYUN 3D","OBJECT_ID":"2017-072A","EPOCH":"2026-04-05T21:50:48.820128","MEAN_MOTION":14.19723655,"ECCENTRICITY":4.63e-5,"INCLINATION":99.0077,"RA_OF_ASC_NODE":69.0501,"ARG_OF_PERICENTER":246.9864,"MEAN_ANOMALY":113.1262,"EPHEMERIS_TYPE":0,"CLASSIFICATION_TYPE":"U","NORAD_CAT_ID":43010,"ELEMENT_SET_NO":999,"REV_AT_EPOCH":43473,"BSTAR":9.3744e-5,"MEAN_MOTION_DOT":1.52e-6,"MEAN_MOTION_DDOT":0},{"OBJECT_NAME":"NOAA 20 (JPSS-1)","OBJECT_ID":"2017-073A","EPOCH":"2026-04-05T19:46:46.771680","MEAN_MOTION":14.19543528,"ECCENTRICITY":0.0002046,"INCLINATION":98.7725,"RA_OF_ASC_NODE":35.9469,"ARG_OF_PERICENTER":101.0324,"MEAN_ANOMALY":259.1082,"EPHEMERIS_TYPE":0,"CLASSIFICATION_TYPE":"U","NORAD_CAT_ID":43013,"ELEMENT_SET_NO":999,"REV_AT_EPOCH":43420,"BSTAR":7.2922e-5,"MEAN_MOTION_DOT":1.1e-6,"MEAN_MOTION_DDOT":0},{"OBJECT_NAME":"GOES 17","OBJECT_ID":"2018-022A","EPOCH":"2026-04-05T14:01:51.192192","MEAN_MOTION":1.00271532,"ECCENTRICITY":0.0001188,"INCLINATION":0.7512,"RA_OF_ASC_NODE":86.7858,"ARG_OF_PERICENTER":260.2628,"MEAN_ANOMALY":327.7985,"EPHEMERIS_TYPE":0,"CLASSIFICATION_TYPE":"U","NORAD_CAT_ID":43226,"ELEMENT_SET_NO":999,"REV_AT_EPOCH":2969,"BSTAR":0,"MEAN_MOTION_DOT":-1.81e-6,"MEAN_MOTION_DDOT":0},{"OBJECT_NAME":"FENGYUN 2H","OBJECT_ID":"2018-050A","EPOCH":"2026-04-05T19:58:03.688032","MEAN_MOTION":1.00270618,"ECCENTRICITY":0.0001109,"INCLINATION":2.8443,"RA_OF_ASC_NODE":79.9369,"ARG_OF_PERICENTER":169.5398,"MEAN_ANOMALY":323.1995,"EPHEMERIS_TYPE":0,"CLASSIFICATION_TYPE":"U","NORAD_CAT_ID":43491,"ELEMENT_SET_NO":999,"REV_AT_EPOCH":2871,"BSTAR":0,"MEAN_MOTION_DOT":-1.23e-6,"MEAN_MOTION_DDOT":0}]
